STARLINK-31578          
1 59321U 24057B   26067.64001234  .00000396  00000+0  23923-4 0  9999
2 59321  42.9986 192.5598 0000943 263.4920  96.5824 15.27576516109684
AL MUNTHER              
1 63240U 25052AG  26068.64540749  .00017933  00000+0  65015-3 0  9992
2 63240  97.4001 323.9152 0008027 130.7043 229.4895 15.28381521 54798
