[{"OBJECT_NAME":"STARLINK-31578","OBJECT_ID":"2024-057B","EPOCH":"2026-03-08T15:21:37.066176","MEAN_MOTION":15.27576516,"ECCENTRICITY":9.437e-5,"INCLINATION":42.9986,"RA_OF_ASC_NODE":192.5598,"ARG_OF_PERICENTER":263.492,"MEAN_ANOMALY":96.5824,"EPHEMERIS_TYPE":0,"CLASSIFICATION_TYPE":"U","NORAD_CAT_ID":59321,"ELEMENT_SET_NO":999,"REV_AT_EPOCH":10968,"BSTAR":2.3922819e-5,"MEAN_MOTION_DOT":3.96e-6,"MEAN_MOTION_DDOT":0},{"OBJECT_NAME":"AL MUNTHER","OBJECT_ID":"2025-052AG","EPOCH":"2026-03-09T15:29:23.207136","MEAN_MOTION":15.28381521,"ECCENTRICITY":0.0008027,"INCLINATION":97.4001,"RA_OF_ASC_NODE":323.9152,"ARG_OF_PERICENTER":130.7043,"MEAN_ANOMALY":229.4895,"EPHEMERIS_TYPE":0,"CLASSIFICATION_TYPE":"U","NORAD_CAT_ID":63240,"ELEMENT_SET_NO":999,"REV_AT_EPOCH":5479,"BSTAR":0.00065015,"MEAN_MOTION_DOT":0.00017933,"MEAN_MOTION_DDOT":0}]
